NORAD_CAT_ID,OBJECT_NAME,OBJECT_TYPE,EPOCH,MEAN_MOTION,ECCENTRICITY,INCLINATION,RA_OF_ASC_NODE,ARG_OF_PERICENTER,MEAN_ANOMALY,BSTAR,MEAN_MOTION_DOT,MEAN_MOTION_DDOT,TLE_LINE0,TLE_LINE1,TLE_LINE2,SEMIMAJOR_AXIS,PERIOD,APOGEE,PERIGEE,DECAYED
51143.0,STARLINK-3184,PAYLOAD,2023-03-12 12:37:50,15.08849374,0.0001345,53.215,176.5213,116.6996,243.4134,0.0018858,0.0002986,0.0,0 STARLINK-3184,1 51143U 22005AR  23071.52627772  .00029860  00000-0  18858-2 0  9991,2 51143  53.2150 176.5213 0001345 116.6996 243.4134 15.08849374 64671,6917.852,95.437,540.647,538.786,0.0
51143.0,STARLINK-3184,PAYLOAD,2023-03-13 09:17:51,15.08853253,0.0001649,53.2145,172.6562,113.7005,246.416,0.00093373,0.00014609,0.0,0 STARLINK-3184,1 51143U 22005AR  23072.38739770  .00014609  00000-0  93373-3 0  9999,2 51143  53.2145 172.6562 0001649 113.7005 246.4160 15.08853253 64803,6917.84,95.437,540.846,538.564,0.0
51143.0,STARLINK-3184,PAYLOAD,2023-03-14 05:57:51,15.08851954,0.0001107,53.214,168.7907,94.3593,265.7525,0.00049649,7.625e-05,0.0,0 STARLINK-3184,1 51143U 22005AR  23073.24851434  .00007625  00000-0  49649-3 0  9994,2 51143  53.2140 168.7907 0001107  94.3593 265.7525 15.08851954 64931,6917.844,95.437,540.475,538.943,0.0
51143.0,STARLINK-3184,PAYLOAD,2023-03-14 12:19:23,15.08858936,0.0001391,53.2139,167.6019,68.6208,291.4932,0.00051976,7.998e-05,0.0,0 STARLINK-3184,1 51143U 22005AR  23073.51347211  .00007998  00000-0  51976-3 0  9996,2 51143  53.2139 167.6019 0001391  68.6208 291.4932 15.08858936 63869,6917.823,95.436,540.65,538.725,0.0
51143.0,STARLINK-3184,PAYLOAD,2023-03-15 12:10:09,15.08870648,0.0001471,53.2139,163.1414,69.3256,290.7893,0.00046048,7.054e-05,0.0,0 STARLINK-3184,1 51143U 22005AR  23074.50705753  .00007054  00000-0  46048-3 0  9992,2 51143  53.2139 163.1414 0001471  69.3256 290.7893 15.08870648 65122,6917.787,95.436,540.669,538.634,0.0
51143.0,STARLINK-3184,PAYLOAD,2023-03-16 05:39:24,15.08829986,0.0001524,53.2149,159.8698,99.0895,261.027,-0.00065847,-0.00010749,0.0,0 STARLINK-3184,1 51143U 22005AR  23075.23569915 -.00010749  00000-0 -65847-3 0  9996,2 51143  53.2149 159.8698 0001524  99.0895 261.0270 15.08829986 65238,6917.911,95.438,540.83,538.722,0.0
51143.0,STARLINK-3184,PAYLOAD,2023-03-16 10:25:34,15.08833121,0.0001675,53.2151,158.9777,97.8137,262.3045,-0.00036059,-6.021e-05,0.0,0 STARLINK-3184,1 51143U 22005AR  23075.43442212 -.00006021  00000-0 -36059-3 0  9999,2 51143  53.2151 158.9777 0001675  97.8137 262.3045 15.08833121 64151,6917.901,95.438,540.925,538.608,0.0
51143.0,STARLINK-3184,PAYLOAD,2023-03-16 16:47:06,15.0883555,0.0001793,53.2126,157.7849,111.7628,248.3555,-0.00019364,-3.368e-05,0.0,0 STARLINK-3184,1 51143U 22005AR  23075.69938140 -.00003368  00000-0 -19364-3 0  9998,2 51143  53.2126 157.7849 0001793 111.7628 248.3555 15.08835550 65308,6917.894,95.438,540.999,538.519,0.0
51143.0,STARLINK-3184,PAYLOAD,2023-03-17 11:51:45,15.0881549,0.0001146,53.2155,154.2209,97.8093,262.3029,-0.00012241,-2.234e-05,0.0,0 STARLINK-3184,1 51143U 22005AR  23076.49428121 -.00002234  00000-0 -12241-3 0  9998,2 51143  53.2155 154.2209 0001146  97.8093 262.3029 15.08815490 65420,6917.955,95.439,540.613,539.028,0.0
51143.0,STARLINK-3184,PAYLOAD,2023-03-17 15:02:32,15.08817784,0.0001165,53.2137,153.6239,100.5097,259.6026,8.5402e-05,1.071e-05,0.0,0 STARLINK-3184,1 51143U 22005AR  23076.62676364  .00001071  00000-0  85402-4 0  9993,2 51143  53.2137 153.6239 0001165 100.5097 259.6026 15.08817784 64336,6917.948,95.439,540.619,539.007,0.0
51143.0,STARLINK-3184,PAYLOAD,2023-03-17 16:37:55,15.0882176,0.000111,53.2146,153.3284,104.2346,255.877,0.00058625,9.05e-05,0.0,0 STARLINK-3184,1 51143U 22005AR  23076.69300543  .00009050  00000-0  58625-3 0  9994,2 51143  53.2146 153.3284 0001110 104.2346 255.8770 15.08821760 65458,6917.936,95.439,540.569,539.033,0.0
51143.0,STARLINK-3184,PAYLOAD,2023-03-18 11:42:32,15.08882155,0.0001039,53.2155,149.7603,91.7642,268.3469,0.0019107,0.00030287,0.0,0 STARLINK-3184,1 51143U 22005AR  23077.48787567  .00030287  00000-0  19107-2 0  9994,2 51143  53.2155 149.7603 0001039  91.7642 268.3469 15.08882155 65573,6917.752,95.435,540.335,538.898,0.0
51143.0,STARLINK-3184,PAYLOAD,2023-03-18 21:14:50,15.08870313,6.25e-05,53.216,147.9763,117.8375,242.2681,-0.00014569,-2.607e-05,0.0,0 STARLINK-3184,1 51143U 22005AR  23077.88530547 -.00002607  00000-0 -14569-3 0  9997,2 51143  53.2160 147.9763 0000625 117.8375 242.2681 15.08870313 64523,6917.788,95.436,540.085,539.22,0.0
51143.0,STARLINK-3184,PAYLOAD,2023-03-19 03:36:23,15.08871862,0.0002399,53.2159,146.7877,82.7362,277.3902,0.00083875,0.00013098,0.0,0 STARLINK-3184,1 51143U 22005AR  23078.15026970  .00013098  00000-0  83875-3 0  9998,2 51143  53.2159 146.7877 0002399  82.7362 277.3902 15.08871862 65672,6917.783,95.436,541.308,537.988,0.0
51143.0,STARLINK-3184,PAYLOAD,2023-03-19 11:33:18,15.08859962,0.0001328,53.2152,145.299,87.0274,273.087,0.0014824,0.00023396,0.0,0 STARLINK-3184,1 51143U 22005AR  23078.48146815  .00023396  00000-0  14824-2 0  9994,2 51143  53.2152 145.2990 0001328  87.0274 273.0870 15.08859962 64613,6917.819,95.436,540.603,538.766,0.0
51143.0,STARLINK-3184,PAYLOAD,2023-03-19 21:05:37,15.08847103,0.0001566,53.2151,143.5154,91.3471,268.7701,0.00091503,0.00014308,0.0,0 STARLINK-3184,1 51143U 22005AR  23078.87891094  .00014308  00000-0  91503-3 0  9996,2 51143  53.2151 143.5154 0001566  91.3471 268.7701 15.08847103 64670,6917.859,95.437,540.807,538.64,0.0
51143.0,STARLINK-3184,PAYLOAD,2023-03-20 11:24:06,15.08841349,0.000139,53.2146,140.8384,105.2045,254.9101,0.0016322,0.00025785,0.0,0 STARLINK-3184,1 51143U 22005AR  23079.47507468  .00025785  00000-0  16322-2 0  9998,2 51143  53.2146 140.8384 0001390 105.2045 254.9101 15.08841349 64763,6917.876,95.437,540.703,538.78,0.0
51143.0,STARLINK-3184,PAYLOAD,2023-03-20 12:59:29,15.08841368,0.0001516,53.2147,140.541,103.5206,256.5955,0.0014202,0.00022388,0.0,0 STARLINK-3184,1 51143U 22005AR  23079.54131505  .00022388  00000-0  14202-2 0  9992,2 51143  53.2147 140.5410 0001516 103.5206 256.5955 15.08841368 65881,6917.876,95.437,540.79,538.692,0.0
51143.0,STARLINK-3184,PAYLOAD,2023-03-21 03:17:58,15.08846574,0.0001858,53.214,137.866,89.6477,270.4728,0.0009448,0.00014783,0.0,0 STARLINK-3184,1 51143U 22005AR  23080.13747789  .00014783  00000-0  94480-3 0  9993,2 51143  53.2140 137.8660 0001858  89.6477 270.4728 15.08846574 65970,6917.86,95.437,541.011,538.44,0.0
51143.0,STARLINK-3184,PAYLOAD,2023-03-21 11:14:53,15.08847615,0.0001727,53.2145,136.3791,102.4995,257.6191,0.00051786,7.965e-05,0.0,0 STARLINK-3184,1 51143U 22005AR  23080.46867507  .00007965  00000-0  51786-3 0  9996,2 51143  53.2145 136.3791 0001727 102.4995 257.6191 15.08847615 64919,6917.857,95.437,540.917,538.527,0.0
51143.0,STARLINK-3184,PAYLOAD,2023-03-21 20:47:12,15.08841828,0.0001746,53.214,134.5952,89.3156,270.8036,0.00021788,3.181e-05,0.0,0 STARLINK-3184,1 51143U 22005AR  23080.86611721  .00003181  00000-0  21788-3 0  9990,2 51143  53.2140 134.5952 0001746  89.3156 270.8036 15.08841828 66081,6917.875,95.437,540.948,538.532,0.0
51143.0,STARLINK-3184,PAYLOAD,2023-03-22 20:37:59,15.08837112,5.77e-05,53.2145,130.1345,92.9925,267.1133,5.6098e-06,-1.98e-06,0.0,0 STARLINK-3184,1 51143U 22005AR  23081.85971544 -.00000198  00000-0  56098-5 0  9992,2 51143  53.2145 130.1345 0000577  92.9925 267.1133 15.08837112 65121,6917.889,95.438,540.153,539.355,0.0
51143.0,STARLINK-3184,PAYLOAD,2023-03-23 02:59:32,15.08836189,0.0001125,53.2142,128.9448,83.1594,276.9526,3.1425e-06,-2.38e-06,0.0,0 STARLINK-3184,1 51143U 22005AR  23082.12467891 -.00000238  00000-0  31425-5 0  9990,2 51143  53.2142 128.9448 0001125  83.1594 276.9526 15.08836189 66275,6917.892,95.438,540.535,538.979,0.0
51143.0,STARLINK-3184,PAYLOAD,2023-03-23 09:21:04,15.08847395,0.0001572,53.2142,127.7543,81.913,278.2041,0.00022298,3.263e-05,0.0,0 STARLINK-3184,1 51143U 22005AR  23082.38963602  .00003263  00000-0  22298-3 0  9995,2 51143  53.2142 127.7543 0001572  81.9130 278.2041 15.08847395 66319,6917.858,95.437,540.81,538.635,0.0
51143.0,STARLINK-3184,PAYLOAD,2023-03-23 20:28:46,15.08857658,0.000161,53.2143,125.6735,77.1307,282.9865,0.00045363,6.942e-05,0.0,0 STARLINK-3184,1 51143U 22005AR  23082.85331217  .00006942  00000-0  45363-3 0  9993,2 51143  53.2143 125.6735 0001610  77.1307 282.9865 15.08857658 65279,6917.826,95.436,540.805,538.578,0.0
51143.0,STARLINK-3184,PAYLOAD,2023-03-24 06:01:04,15.08882263,0.00017,53.2142,123.8893,79.0074,281.1109,0.0011339,0.00017825,0.0,0 STARLINK-3184,1 51143U 22005AR  23083.25074660  .00017825  00000-0  11339-2 0  9991,2 51143  53.2142 123.8893 0001700  79.0074 281.1109 15.08882263 66447,6917.751,95.435,540.792,538.44,0.0
51143.0,STARLINK-3184,PAYLOAD,2023-03-24 09:11:50,15.08894582,0.000183,53.2148,123.2944,78.4179,281.7019,0.0016448,0.00026025,0.0,0 STARLINK-3184,1 51143U 22005AR  23083.38322326  .00026025  00000-0  16448-2 0  9998,2 51143  53.2148 123.2944 0001830  78.4179 281.7019 15.08894582 65359,6917.714,95.434,540.845,538.313,0.0
51143.0,STARLINK-3184,PAYLOAD,2023-03-24 13:57:59,15.08894626,0.0001558,53.2143,122.3973,110.0445,250.0715,0.0013799,0.00021774,0.0,0 STARLINK-3184,1 51143U 22005AR  23083.58193323  .00021774  00000-0  13799-2 0  9995,2 51143  53.2143 122.3973 0001558 110.0445 250.0715 15.08894626 65386,6917.713,95.434,540.656,538.501,0.0
51143.0,STARLINK-3184,PAYLOAD,2023-03-25 02:41:05,15.08817647,0.000182,53.213,120.023,96.8514,263.2685,-0.00087101,-0.00014115,0.0,0 STARLINK-3184,1 51143U 22005AR  23084.11187205 -.00014115  00000-0 -87101-3 0  9999,2 51143  53.2130 120.0230 0001820  96.8514 263.2685 15.08817647 66575,6917.949,95.439,541.073,538.555,0.0
51143.0,STARLINK-3184,PAYLOAD,2023-03-25 13:48:48,15.08805991,0.0001271,53.2157,117.9403,113.9705,246.142,-0.00045157,-7.461e-05,0.0,0 STARLINK-3184,1 51143U 22005AR  23084.57556637 -.00007461  00000-0 -45157-3 0  9999,2 51143  53.2157 117.9403 0001271 113.9705 246.1420 15.08805991 65535,6917.984,95.44,540.729,538.97,0.0
